SL-16 R/B               
1 22566U 93016B   25339.92004945 -.00000182  00000+0 -68903-4 0  9997
2 22566  71.0090  52.1267 0007818 110.6698 249.5264 14.15288129688902
COSMOS 2242             
1 22626U 93024A   25340.01434450  .00003609  00000+0  31844-3 0  9991
2 22626  82.5191 356.2737 0014781 259.1525 100.8033 14.96064188766381
SL-16 R/B               
1 22803U 93059B   25340.09741732  .00000294  00000+0  16903-3 0  9994
2 22803  70.9898 208.4929 0017599 345.3008  14.7601 14.17211948666270
ARIANE 40 R/B           
1 22830U 93061H   25340.19357129  .00000528  00000+0  20962-3 0  9991
2 22830  98.5084  45.8424 0010506 195.4382 164.6483 14.32794754680712
COSMOS 2278             
1 23087U 94023A   25340.09991930 -.00000036  00000+0  56448-5 0  9993
2 23087  71.0549  10.9027 0008672 190.1469 169.9480 14.14351260631576
SL-16 R/B               
1 23088U 94023B   25340.18912073  .00000341  00000+0  20084-3 0  9998
2 23088  71.0006 267.2417 0001094  56.8411 303.2816 14.15000154632864
SL-16 R/B               
1 23343U 94074B   25340.04017758  .00000942  00000+0  13336-3 0  9998
2 23343  97.7207   9.6108 0007076 155.2500 235.0418 14.79277804673403
SL-16 R/B               
1 23405U 94077B   25339.99517568  .00000139  00000+0  95441-4 0  9992
2 23405  70.9812 189.6027 0004577 289.1723  70.8904 14.15546180602978
ARIANE 40+ R/B          
1 23561U 95021B   25340.19601178  .00000632  00000+0  21598-3 0  9999
2 23561  98.4659  47.8636 0007689  67.0764 314.5869 14.39687678605796
SL-16 R/B               
1 23705U 95058B   25340.06821032  .00000357  00000+0  20665-3 0  9996
2 23705  71.0225  16.8115 0014884 263.5011  96.4417 14.15480591554600
SL-16 R/B               
1 24298U 96051B   25340.18544690  .00000053  00000+0  55426-4 0  9990
2 24298  70.7599  13.1578 0019285 269.4486  90.4423 14.12395570508443
ORBVIEW 2 (SEASTAR)     
1 24883U 97037A   25340.29323429  .00000682  00000+0  25361-3 0  9994
2 24883  98.8454 137.2055 0001977   2.2149 357.9043 14.35409993495073
