CCSDS_OMM_VERS = 2.0
CREATION_DATE  = 
ORIGINATOR     = 

OBJECT_NAME    = SL-16 R/B
OBJECT_ID      = 1993-016B
CENTER_NAME    = EARTH
REF_FRAME      = TEME
TIME_SYSTEM    = UTC
MEAN_ELEMENT_THEORY = SGP/SGP4

EPOCH          = 2025-12-05T22:04:52.272480
MEAN_MOTION    = 14.15288129
ECCENTRICITY   = .00078185
INCLINATION    = 71.0090
RA_OF_ASC_NODE = 52.1267
ARG_OF_PERICENTER = 110.6698
MEAN_ANOMALY   = 249.5264

EPHEMERIS_TYPE = 0
CLASSIFICATION_TYPE = U
NORAD_CAT_ID   = 22566
ELEMENT_SET_NO = 999
REV_AT_EPOCH   = 68890
BSTAR          = -.68903029E-4
MEAN_MOTION_DOT = -.182E-5
MEAN_MOTION_DDOT = 0

CCSDS_OMM_VERS = 2.0
CREATION_DATE  = 
ORIGINATOR     = 

OBJECT_NAME    = COSMOS 2242
OBJECT_ID      = 1993-024A
CENTER_NAME    = EARTH
REF_FRAME      = TEME
TIME_SYSTEM    = UTC
MEAN_ELEMENT_THEORY = SGP/SGP4

EPOCH          = 2025-12-06T00:20:39.364800
MEAN_MOTION    = 14.96064188
ECCENTRICITY   = .00147814
INCLINATION    = 82.5191
RA_OF_ASC_NODE = 356.2737
ARG_OF_PERICENTER = 259.1525
MEAN_ANOMALY   = 100.8033

EPHEMERIS_TYPE = 0
CLASSIFICATION_TYPE = U
NORAD_CAT_ID   = 22626
ELEMENT_SET_NO = 999
REV_AT_EPOCH   = 76638
BSTAR          = .31843935E-3
MEAN_MOTION_DOT = .3609E-4
MEAN_MOTION_DDOT = 0

CCSDS_OMM_VERS = 2.0
CREATION_DATE  = 
ORIGINATOR     = 

OBJECT_NAME    = SL-16 R/B
OBJECT_ID      = 1993-059B
CENTER_NAME    = EARTH
REF_FRAME      = TEME
TIME_SYSTEM    = UTC
MEAN_ELEMENT_THEORY = SGP/SGP4

EPOCH          = 2025-12-06T02:20:16.856448
MEAN_MOTION    = 14.17211948
ECCENTRICITY   = .00175998
INCLINATION    = 70.9898
RA_OF_ASC_NODE = 208.4929
ARG_OF_PERICENTER = 345.3008
MEAN_ANOMALY   = 14.7601

EPHEMERIS_TYPE = 0
CLASSIFICATION_TYPE = U
NORAD_CAT_ID   = 22803
ELEMENT_SET_NO = 999
REV_AT_EPOCH   = 66627
BSTAR          = .16902832E-3
MEAN_MOTION_DOT = .294E-5
MEAN_MOTION_DDOT = 0

CCSDS_OMM_VERS = 2.0
CREATION_DATE  = 
ORIGINATOR     = 

OBJECT_NAME    = ARIANE 40 R/B
OBJECT_ID      = 1993-061H
CENTER_NAME    = EARTH
REF_FRAME      = TEME
TIME_SYSTEM    = UTC
MEAN_ELEMENT_THEORY = SGP/SGP4

EPOCH          = 2025-12-06T04:38:44.559456
MEAN_MOTION    = 14.32794754
ECCENTRICITY   = .00105066
INCLINATION    = 98.5084
RA_OF_ASC_NODE = 45.8424
ARG_OF_PERICENTER = 195.4382
MEAN_ANOMALY   = 164.6483

EPHEMERIS_TYPE = 0
CLASSIFICATION_TYPE = U
NORAD_CAT_ID   = 22830
ELEMENT_SET_NO = 999
REV_AT_EPOCH   = 68071
BSTAR          = .20961508E-3
MEAN_MOTION_DOT = .528E-5
MEAN_MOTION_DDOT = 0

CCSDS_OMM_VERS = 2.0
CREATION_DATE  = 
ORIGINATOR     = 

OBJECT_NAME    = COSMOS 2278
OBJECT_ID      = 1994-023A
CENTER_NAME    = EARTH
REF_FRAME      = TEME
TIME_SYSTEM    = UTC
MEAN_ELEMENT_THEORY = SGP/SGP4

EPOCH          = 2025-12-06T02:23:53.027520
MEAN_MOTION    = 14.14351260
ECCENTRICITY   = .00086724
INCLINATION    = 71.0549
RA_OF_ASC_NODE = 10.9027
ARG_OF_PERICENTER = 190.1469
MEAN_ANOMALY   = 169.9480

EPHEMERIS_TYPE = 0
CLASSIFICATION_TYPE = U
NORAD_CAT_ID   = 23087
ELEMENT_SET_NO = 999
REV_AT_EPOCH   = 63157
BSTAR          = .5644817E-5
MEAN_MOTION_DOT = -.36E-6
MEAN_MOTION_DDOT = 0

CCSDS_OMM_VERS = 2.0
CREATION_DATE  = 
ORIGINATOR     = 

OBJECT_NAME    = SL-16 R/B
OBJECT_ID      = 1994-023B
CENTER_NAME    = EARTH
REF_FRAME      = TEME
TIME_SYSTEM    = UTC
MEAN_ELEMENT_THEORY = SGP/SGP4

EPOCH          = 2025-12-06T04:32:20.031072
MEAN_MOTION    = 14.15000154
ECCENTRICITY   = .00010943
INCLINATION    = 71.0006
RA_OF_ASC_NODE = 267.2417
ARG_OF_PERICENTER = 56.8411
MEAN_ANOMALY   = 303.2816

EPHEMERIS_TYPE = 0
CLASSIFICATION_TYPE = U
NORAD_CAT_ID   = 23088
ELEMENT_SET_NO = 999
REV_AT_EPOCH   = 63286
BSTAR          = .20084113E-3
MEAN_MOTION_DOT = .341E-5
MEAN_MOTION_DDOT = 0

CCSDS_OMM_VERS = 2.0
CREATION_DATE  = 
ORIGINATOR     = 

OBJECT_NAME    = SL-16 R/B
OBJECT_ID      = 1994-074B
CENTER_NAME    = EARTH
REF_FRAME      = TEME
TIME_SYSTEM    = UTC
MEAN_ELEMENT_THEORY = SGP/SGP4

EPOCH          = 2025-12-06T00:57:51.342912
MEAN_MOTION    = 14.79277804
ECCENTRICITY   = .00070768
INCLINATION    = 97.7207
RA_OF_ASC_NODE = 9.6108
ARG_OF_PERICENTER = 155.2500
MEAN_ANOMALY   = 235.0418

EPHEMERIS_TYPE = 0
CLASSIFICATION_TYPE = U
NORAD_CAT_ID   = 23343
ELEMENT_SET_NO = 999
REV_AT_EPOCH   = 67340
BSTAR          = .13335745E-3
MEAN_MOTION_DOT = .942E-5
MEAN_MOTION_DDOT = 0

CCSDS_OMM_VERS = 2.0
CREATION_DATE  = 
ORIGINATOR     = 

OBJECT_NAME    = SL-16 R/B
OBJECT_ID      = 1994-077B
CENTER_NAME    = EARTH
REF_FRAME      = TEME
TIME_SYSTEM    = UTC
MEAN_ELEMENT_THEORY = SGP/SGP4

EPOCH          = 2025-12-05T23:53:03.178752
MEAN_MOTION    = 14.15546180
ECCENTRICITY   = .00045778
INCLINATION    = 70.9812
RA_OF_ASC_NODE = 189.6027
ARG_OF_PERICENTER = 289.1723
MEAN_ANOMALY   = 70.8904

EPHEMERIS_TYPE = 0
CLASSIFICATION_TYPE = U
NORAD_CAT_ID   = 23405
ELEMENT_SET_NO = 999
REV_AT_EPOCH   = 60297
BSTAR          = .95440631E-4
MEAN_MOTION_DOT = .139E-5
MEAN_MOTION_DDOT = 0

CCSDS_OMM_VERS = 2.0
CREATION_DATE  = 
ORIGINATOR     = 

OBJECT_NAME    = ARIANE 40+ R/B
OBJECT_ID      = 1995-021B
CENTER_NAME    = EARTH
REF_FRAME      = TEME
TIME_SYSTEM    = UTC
MEAN_ELEMENT_THEORY = SGP/SGP4

EPOCH          = 2025-12-06T04:42:15.417792
MEAN_MOTION    = 14.39687678
ECCENTRICITY   = .0007689
INCLINATION    = 98.4659
RA_OF_ASC_NODE = 47.8636
ARG_OF_PERICENTER = 67.0764
MEAN_ANOMALY   = 314.5869

EPHEMERIS_TYPE = 0
CLASSIFICATION_TYPE = U
NORAD_CAT_ID   = 23561
ELEMENT_SET_NO = 999
REV_AT_EPOCH   = 60579
BSTAR          = .21598172E-3
MEAN_MOTION_DOT = .632E-5
MEAN_MOTION_DDOT = 0

CCSDS_OMM_VERS = 2.0
CREATION_DATE  = 
ORIGINATOR     = 

OBJECT_NAME    = SL-16 R/B
OBJECT_ID      = 1995-058B
CENTER_NAME    = EARTH
REF_FRAME      = TEME
TIME_SYSTEM    = UTC
MEAN_ELEMENT_THEORY = SGP/SGP4

EPOCH          = 2025-12-06T01:38:13.371648
MEAN_MOTION    = 14.15480591
ECCENTRICITY   = .00148846
INCLINATION    = 71.0225
RA_OF_ASC_NODE = 16.8115
ARG_OF_PERICENTER = 263.5011
MEAN_ANOMALY   = 96.4417

EPHEMERIS_TYPE = 0
CLASSIFICATION_TYPE = U
NORAD_CAT_ID   = 23705
ELEMENT_SET_NO = 999
REV_AT_EPOCH   = 55460
BSTAR          = .20665069E-3
MEAN_MOTION_DOT = .357E-5
MEAN_MOTION_DDOT = 0

CCSDS_OMM_VERS = 2.0
CREATION_DATE  = 
ORIGINATOR     = 

OBJECT_NAME    = SL-16 R/B
OBJECT_ID      = 1996-051B
CENTER_NAME    = EARTH
REF_FRAME      = TEME
TIME_SYSTEM    = UTC
MEAN_ELEMENT_THEORY = SGP/SGP4

EPOCH          = 2025-12-06T04:27:02.612160
MEAN_MOTION    = 14.12395570
ECCENTRICITY   = .00192859
INCLINATION    = 70.7599
RA_OF_ASC_NODE = 13.1578
ARG_OF_PERICENTER = 269.4486
MEAN_ANOMALY   = 90.4423

EPHEMERIS_TYPE = 0
CLASSIFICATION_TYPE = U
NORAD_CAT_ID   = 24298
ELEMENT_SET_NO = 999
REV_AT_EPOCH   = 50844
BSTAR          = .55425565E-4
MEAN_MOTION_DOT = .53E-6
MEAN_MOTION_DDOT = 0

CCSDS_OMM_VERS = 2.0
CREATION_DATE  = 
ORIGINATOR     = 

OBJECT_NAME    = ORBVIEW 2 (SEASTAR)
OBJECT_ID      = 1997-037A
CENTER_NAME    = EARTH
REF_FRAME      = TEME
TIME_SYSTEM    = UTC
MEAN_ELEMENT_THEORY = SGP/SGP4

EPOCH          = 2025-12-06T07:02:15.442656
MEAN_MOTION    = 14.35409993
ECCENTRICITY   = .00019778
INCLINATION    = 98.8454
RA_OF_ASC_NODE = 137.2055
ARG_OF_PERICENTER = 2.2149
MEAN_ANOMALY   = 357.9043

EPHEMERIS_TYPE = 0
CLASSIFICATION_TYPE = U
NORAD_CAT_ID   = 24883
ELEMENT_SET_NO = 999
REV_AT_EPOCH   = 49507
BSTAR          = .25360853E-3
MEAN_MOTION_DOT = .682E-5
MEAN_MOTION_DDOT = 0

